OBJECT_NAME,OBJECT_ID,EPOCH,MEAN_MOTION,ECCENTRICITY,INCLINATION,RA_OF_ASC_NODE,ARG_OF_PERICENTER,MEAN_ANOMALY,EPHEMERIS_TYPE,CLASSIFICATION_TYPE,NORAD_CAT_ID,ELEMENT_SET_NO,REV_AT_EPOCH,BSTAR,MEAN_MOTION_DOT,MEAN_MOTION_DDOT
LEMUR-2-STARLIGHT,2025-276DY,2026-07-12T03:10:51.532896,14.99331400,.00148193,97.5233,262.9182,56.3195,303.9440,0,U,66783,999,3393,.32198496E-3,.3887E-4,0
LEMUR-2-TARTIFLETTE,2025-276DZ,2026-07-12T03:08:30.788160,14.99317762,.00138511,97.5237,262.9245,64.3329,295.9324,0,U,66784,999,3393,.29474152E-3,.3551E-4,0
LEMUR-2-VUKASIN,2025-276EA,2026-07-11T18:29:14.925696,15.00527711,.00035778,97.5240,262.9290,64.9856,295.1739,0,U,66785,999,3383,.23704415E-3,.2931E-4,0
LEMUR-2-HOTSPUR-TOM,2025-276EB,2026-07-11T17:23:30.411456,14.99219626,.00138345,97.5223,262.5077,56.6609,303.5937,0,U,66786,999,3380,.26466452E-3,.3174E-4,0
LEMUR-2-MYRA,2025-276EC,2026-07-11T17:39:17.777952,15.00564390,.00185373,97.5222,262.8153,64.7520,295.5623,0,U,66787,999,3389,.28884514E-3,.36E-4,0
LEMUR-2 FIKRETDENGIZ,2026-004A,2026-07-11T22:35:08.683872,14.88502523,.0010369,97.8021,191.1219,65.0256,295.2037,0,U,67363,999,2696,.29414E-3,.2681E-4,0
TWILIGHT-1 OBJECT B,2026-004B,2026-07-11T12:08:26.049120,14.87785770,.00099555,97.8072,190.6963,56.5620,303.6547,0,U,67364,999,2690,.11821451E-3,.1025E-4,0
LEMUR-2-MARIO-SOUSA,2026-004C,2026-07-11T23:43:35.373504,14.88710875,.00099956,97.7995,191.1638,65.8853,294.3409,0,U,67365,999,2698,.26555822E-3,.2427E-4,0
LEMUR-2-SONNENBLUME,2026-004E,2026-07-11T18:56:26.631168,14.88442703,.00095587,97.7998,190.9418,67.7455,292.4775,0,U,67367,999,2695,.17246721E-3,.1547E-4,0
LEMUR-2-WOBLER,2026-004F,2026-07-12T05:59:20.452992,14.88685048,.00096514,97.8046,191.5429,58.3291,301.8866,0,U,67368,999,2702,.20089395E-3,.1822E-4,0
LEMUR-2-GRAM-E-SUE,2026-004H,2026-07-12T05:47:42.506016,14.88581148,.00087185,97.7985,191.4036,68.8426,291.3722,0,U,67370,999,2702,.14938528E-3,.1337E-4,0
LEMUR-2-KATIE,2026-004AA,2026-07-11T22:23:42.533088,14.90232655,.0003723,97.8041,191.6404,41.3938,318.7561,0,U,67387,999,2699,.31446E-3,.2995E-4,0
LEMUR-2-HCS-BAZUS,2026-004AB,2026-07-11T22:21:23.149152,14.90250498,.0003251,97.8030,191.6175,40.9364,319.2098,0,U,67388,999,2699,.18828E-3,.1771E-4,0
